{"fetched_at":"2026-03-29T16:36:15Z","count":15609,"tles":[{"name":"STARLINK-35130","line1":"1 65740U 25216G   26087.75074049  .00021615  00000+0  73969-3 0  9998","line2":"2 65740  53.1591 244.2358 0001372  61.1303 298.9835 15.30204204 29515","category":"Starlink"}]}